start=new Date('2022-11-21T00:00:00.000Z').valueOf();
sats=[{"TLE_LINE1":"1 52297U 22041AN  22324.84642186  .00002788  00000-0  19315-3 0  9993","CLASSIFICATION_TYPE":"U","GP_ID":"218362708","PERIAPSIS":"538.189","MEAN_ANOMALY":"318.9238","RCS_SIZE":"LARGE","MEAN_MOTION":"15.08845969","SITE":"AFETR","DECAY_DATE":null,"ELEMENT_SET_NO":"999","TLE_LINE2":"2 52297  53.2175 107.8676 0002223  41.1922 318.9238 15.08845969 32614","BSTAR":"0.00019315000000","LAUNCH_DATE":"2022-04-21","NORAD_CAT_ID":"52297","APOAPSIS":"541.265","REF_FRAME":"TEME","INCLINATION":"53.2175","RA_OF_ASC_NODE":"107.8676","OBJECT_ID":"2022-041AN","ARG_OF_PERICENTER":"41.1922","EPHEMERIS_TYPE":"0","COUNTRY_CODE":"US","FILE":"3665715","TIME_SYSTEM":"UTC","ECCENTRICITY":"0.00022230","REV_AT_EPOCH":"3261","CENTER_NAME":"EARTH","SEMIMAJOR_AXIS":"6917.862","OBJECT_NAME":"STARLINK-3758","MEAN_MOTION_DDOT":"0.0000000000000","MEAN_MOTION_DOT":"0.00002788","EPOCH":"2022-11-20T20:18:50.848704","PERIOD":"95.437","MEAN_ELEMENT_THEORY":"SGP4","OBJECT_TYPE":"PAYLOAD"},{"PERIOD":"95.437","MEAN_MOTION_DDOT":"0.0000000000000","EPOCH":"2022-11-20T15:00:53.348544","MEAN_MOTION_DOT":"0.00001048","SEMIMAJOR_AXIS":"6917.876","OBJECT_NAME":"STARLINK-3760","CENTER_NAME":"EARTH","OBJECT_TYPE":"PAYLOAD","MEAN_ELEMENT_THEORY":"SGP4","ARG_OF_PERICENTER":"44.1654","EPHEMERIS_TYPE":"0","OBJECT_ID":"2022-041AP","RA_OF_ASC_NODE":"108.8699","ECCENTRICITY":"0.00018820","REV_AT_EPOCH":"3258","TIME_SYSTEM":"UTC","FILE":"3665715","COUNTRY_CODE":"US","NORAD_CAT_ID":"52298","LAUNCH_DATE":"2022-04-21","BSTAR":"0.00008393300000","ELEMENT_SET_NO":"999","TLE_LINE2":"2 52298  53.2189 108.8699 0001882  44.1654 315.9488 15.08841317 32584","INCLINATION":"53.2189","REF_FRAME":"TEME","APOAPSIS":"541.043","PERIAPSIS":"538.439","GP_ID":"218362459","TLE_LINE1":"1 52298U 22041AP  22324.62561746  .00001048  00000-0  83933-4 0  9998","CLASSIFICATION_TYPE":"U","DECAY_DATE":null,"SITE":"AFETR","MEAN_MOTION":"15.08841317","RCS_SIZE":"LARGE","MEAN_ANOMALY":"315.9488"},{"GP_ID":"218361208","TLE_LINE1":"1 52299U 22041AQ  22324.69920830  .00002005  00000-0  14407-3 0  9992","CLASSIFICATION_TYPE":"U","PERIAPSIS":"538.832","MEAN_ANOMALY":"284.9272","RCS_SIZE":"LARGE","DECAY_DATE":null,"MEAN_MOTION":"15.08834546","SITE":"AFETR","TLE_LINE2":"2 52299  53.2189 108.5324 0001344  75.1869 284.9272 15.08834546 32595","ELEMENT_SET_NO":"999","BSTAR":"0.00014407000000","NORAD_CAT_ID":"52299","LAUNCH_DATE":"2022-04-21","REF_FRAME":"TEME","APOAPSIS":"540.692","INCLINATION":"53.2189","RA_OF_ASC_NODE":"108.5324","ARG_OF_PERICENTER":"75.1869","EPHEMERIS_TYPE":"0","OBJECT_ID":"2022-041AQ","FILE":"3665715","COUNTRY_CODE":"US","ECCENTRICITY":"0.00013440","REV_AT_EPOCH":"3259","TIME_SYSTEM":"UTC","CENTER_NAME":"EARTH","PERIOD":"95.438","SEMIMAJOR_AXIS":"6917.897","OBJECT_NAME":"STARLINK-3759","MEAN_MOTION_DDOT":"0.0000000000000","EPOCH":"2022-11-20T16:46:51.597120","MEAN_MOTION_DOT":"0.00002005","MEAN_ELEMENT_THEORY":"SGP4","OBJECT_TYPE":"PAYLOAD"},{"OBJECT_TYPE":"PAYLOAD","MEAN_ELEMENT_THEORY":"SGP4","MEAN_MOTION_DDOT":"0.0000000000000","EPOCH":"2022-11-20T16:25:40.240992","MEAN_MOTION_DOT":"0.00002701","OBJECT_NAME":"STARLINK-3769","SEMIMAJOR_AXIS":"6917.839","PERIOD":"95.437","CENTER_NAME":"EARTH","TIME_SYSTEM":"UTC","ECCENTRICITY":"0.00017640","REV_AT_EPOCH":"3381","COUNTRY_CODE":"US","FILE":"3665715","OBJECT_ID":"2022-041AR","EPHEMERIS_TYPE":"0","ARG_OF_PERICENTER":"46.9965","RA_OF_ASC_NODE":"108.6090","INCLINATION":"53.2197","APOAPSIS":"540.924","REF_FRAME":"TEME","LAUNCH_DATE":"2022-04-21","NORAD_CAT_ID":"52300","BSTAR":"0.00018765000000","ELEMENT_SET_NO":"999","TLE_LINE2":"2 52300  53.2197 108.6090 0001764  46.9965 313.1175 15.08853525 33818","SITE":"AFETR","MEAN_MOTION":"15.08853525","DECAY_DATE":null,"RCS_SIZE":"LARGE","MEAN_ANOMALY":"313.1175","PERIAPSIS":"538.484","TLE_LINE1":"1 52300U 22041AR  22324.68449353  .00002701  00000-0  18765-3 0  9994","CLASSIFICATION_TYPE":"U","GP_ID":"218361957"},{"MEAN_ELEMENT_THEORY":"SGP4","OBJECT_TYPE":"PAYLOAD","CENTER_NAME":"EARTH","PERIOD":"95.437","MEAN_MOTION_DDOT":"0.0000000000000","MEAN_MOTION_DOT":"0.00001063","EPOCH":"2022-11-20T15:16:46.414848","OBJECT_NAME":"STARLINK-3768","SEMIMAJOR_AXIS":"6917.859","FILE":"3665715","COUNTRY_CODE":"US","REV_AT_EPOCH":"3258","ECCENTRICITY":"0.00020980","TIME_SYSTEM":"UTC","RA_OF_ASC_NODE":"108.8267","ARG_OF_PERICENTER":"48.5410","EPHEMERIS_TYPE":"0","OBJECT_ID":"2022-041AS","REF_FRAME":"TEME","APOAPSIS":"541.176","INCLINATION":"53.2191","BSTAR":"0.00008488700000","TLE_LINE2":"2 52301  53.2191 108.8267 0002098  48.5410 311.5762 15.08846938 32582","ELEMENT_SET_NO":"999","NORAD_CAT_ID":"52301","LAUNCH_DATE":"2022-04-21","RCS_SIZE":"LARGE","MEAN_ANOMALY":"311.5762","DECAY_DATE":null,"SITE":"AFETR","MEAN_MOTION":"15.08846938","GP_ID":"218362209","TLE_LINE1":"1 52301U 22041AS  22324.63664832  .00001063  00000-0  84887-4 0  9990","CLASSIFICATION_TYPE":"U","PERIAPSIS":"538.273"},{"ELEMENT_SET_NO":"999","TLE_LINE2":"2 52302  53.2169  97.7474 0001908  50.8777 309.2385 15.08843433 33960","BSTAR":"0.00007539200000","LAUNCH_DATE":"2022-04-21","NORAD_CAT_ID":"52302","APOAPSIS":"541.055","REF_FRAME":"TEME","INCLINATION":"53.2169","TLE_LINE1":"1 52302U 22041AT  22324.87310262  .00000912  00000-0  75392-4 0  9995","CLASSIFICATION_TYPE":"U","GP_ID":"218336519","PERIAPSIS":"538.415","MEAN_ANOMALY":"309.2385","RCS_SIZE":"LARGE","MEAN_MOTION":"15.08843433","SITE":"AFETR","DECAY_DATE":null,"CENTER_NAME":"EARTH","SEMIMAJOR_AXIS":"6917.870","OBJECT_NAME":"STARLINK-3564","MEAN_MOTION_DDOT":"0.0000000000000","EPOCH":"2022-11-20T20:57:16.066368","MEAN_MOTION_DOT":"0.00000912","PERIOD":"95.437","MEAN_ELEMENT_THEORY":"SGP4","OBJECT_TYPE":"PAYLOAD","RA_OF_ASC_NODE":"97.7474","OBJECT_ID":"2022-041AT","ARG_OF_PERICENTER":"50.8777","EPHEMERIS_TYPE":"0","COUNTRY_CODE":"US","FILE":"3665628","TIME_SYSTEM":"UTC","REV_AT_EPOCH":"3396","ECCENTRICITY":"0.00019080"},{"EPHEMERIS_TYPE":"0","ARG_OF_PERICENTER":"49.5279","OBJECT_ID":"2022-041AU","RA_OF_ASC_NODE":"108.5810","ECCENTRICITY":"0.00020010","REV_AT_EPOCH":"3381","TIME_SYSTEM":"UTC","FILE":"3665715","COUNTRY_CODE":"US","PERIOD":"95.437","SEMIMAJOR_AXIS":"6917.836","OBJECT_NAME":"STARLINK-3742","MEAN_MOTION_DDOT":"0.0000000000000","EPOCH":"2022-11-20T16:30:57.555360","MEAN_MOTION_DOT":"0.00000827","CENTER_NAME":"EARTH","OBJECT_TYPE":"PAYLOAD","MEAN_ELEMENT_THEORY":"SGP4","PERIAPSIS":"538.317","GP_ID":"218361707","TLE_LINE1":"1 52303U 22041AU  22324.68816615  .00000827  00000-0  70024-4 0  9990","CLASSIFICATION_TYPE":"U","DECAY_DATE":null,"MEAN_MOTION":"15.08854476","SITE":"AFETR","MEAN_ANOMALY":"310.5887","RCS_SIZE":"LARGE","NORAD_CAT_ID":"52303","LAUNCH_DATE":"2022-04-21","TLE_LINE2":"2 52303  53.2187 108.5810 0002001  49.5279 310.5887 15.08854476 33818","ELEMENT_SET_NO":"999","BSTAR":"0.00007002400000","INCLINATION":"53.2187","REF_FRAME":"TEME","APOAPSIS":"541.085"},{"RA_OF_ASC_NODE":"98.6618","OBJECT_ID":"2022-041AV","ARG_OF_PERICENTER":"45.8897","EPHEMERIS_TYPE":"0","COUNTRY_CODE":"US","FILE":"3665715","TIME_SYSTEM":"UTC","ECCENTRICITY":"0.00021910","REV_AT_EPOCH":"3272","CENTER_NAME":"EARTH","MEAN_MOTION_DDOT":"0.0000000000000","EPOCH":"2022-11-20T16:05:48.310656","MEAN_MOTION_DOT":"0.00000576","SEMIMAJOR_AXIS":"6917.872","OBJECT_NAME":"STARLINK-3744","PERIOD":"95.437","MEAN_ELEMENT_THEORY":"SGP4","OBJECT_TYPE":"PAYLOAD","TLE_LINE1":"1 52304U 22041AV  22324.67069804  .00000576  00000-0  54265-4 0  9990","CLASSIFICATION_TYPE":"U","GP_ID":"218361458","PERIAPSIS":"538.222","RCS_SIZE":"LARGE","MEAN_ANOMALY":"314.2275","SITE":"AFETR","MEAN_MOTION":"15.08842674","DECAY_DATE":null,"BSTAR":"0.00005426500000","TLE_LINE2":"2 52304  53.2181  98.6618 0002191  45.8897 314.2275 15.08842674 32721","ELEMENT_SET_NO":"999","LAUNCH_DATE":"2022-04-21","NORAD_CAT_ID":"52304","APOAPSIS":"541.253","REF_FRAME":"TEME","INCLINATION":"53.2181"},{"MEAN_ANOMALY":"303.6081","RCS_SIZE":"LARGE","DECAY_DATE":null,"MEAN_MOTION":"15.08849107","SITE":"AFETR","GP_ID":"218362709","TLE_LINE1":"1 52305U 22041AW  22324.68175961  .00000405  00000-0  43518-4 0  9994","CLASSIFICATION_TYPE":"U","PERIAPSIS":"538.517","REF_FRAME":"TEME","APOAPSIS":"540.918","INCLINATION":"53.2196","ELEMENT_SET_NO":"999","TLE_LINE2":"2 52305  53.2196 108.6199 0001736  56.5077 303.6081 15.08849107 32597","BSTAR":"0.00004351800000","NORAD_CAT_ID":"52305","LAUNCH_DATE":"2022-04-21","FILE":"3665715","COUNTRY_CODE":"US","ECCENTRICITY":"0.00017360","REV_AT_EPOCH":"3259","TIME_SYSTEM":"UTC","RA_OF_ASC_NODE":"108.6199","EPHEMERIS_TYPE":"0","ARG_OF_PERICENTER":"56.5077","OBJECT_ID":"2022-041AW","MEAN_ELEMENT_THEORY":"SGP4","OBJECT_TYPE":"PAYLOAD","CENTER_NAME":"EARTH","PERIOD":"95.437","OBJECT_NAME":"STARLINK-3724","SEMIMAJOR_AXIS":"6917.853","MEAN_MOTION_DDOT":"0.0000000000000","MEAN_MOTION_DOT":"0.00000405","EPOCH":"2022-11-20T16:21:44.030304"},{"TLE_LINE1":"1 52306U 22041AX  22324.79949642  .00002389  00000-0  16821-3 0  9991","CLASSIFICATION_TYPE":"U","GP_ID":"218329934","PERIAPSIS":"538.556","MEAN_ANOMALY":"322.0172","RCS_SIZE":"LARGE","MEAN_MOTION":"15.08832198","SITE":"AFETR","DECAY_DATE":null,"ELEMENT_SET_NO":"999","TLE_LINE2":"2 52306  53.2168  98.0769 0001754  38.0944 322.0172 15.08832198 33960","BSTAR":"0.00016821000000","LAUNCH_DATE":"2022-04-21","NORAD_CAT_ID":"52306","APOAPSIS":"540.983","REF_FRAME":"TEME","INCLINATION":"53.2168","RA_OF_ASC_NODE":"98.0769","OBJECT_ID":"2022-041AX","ARG_OF_PERICENTER":"38.0944","EPHEMERIS_TYPE":"0","COUNTRY_CODE":"US","FILE":"3665333","TIME_SYSTEM":"UTC","REV_AT_EPOCH":"3396","ECCENTRICITY":"0.00017540","CENTER_NAME":"EARTH","SEMIMAJOR_AXIS":"6917.904","OBJECT_NAME":"STARLINK-3747","MEAN_MOTION_DOT":"0.00002389","MEAN_MOTION_DDOT":"0.0000000000000","EPOCH":"2022-11-20T19:11:16.490688","PERIOD":"95.438","MEAN_ELEMENT_THEORY":"SGP4","OBJECT_TYPE":"PAYLOAD"}];
